AEROCUBE 6B             
1 40046U 14033AN  26068.42625992  .00007941  00000+0  66368-3 0  9998
2 40046  97.7129 236.1645 0037452 343.2300  16.7681 14.98232474631816
STARLINK-4392           
1 53489U 22099AA  26068.89825182  .00000755  00000+0  63339-4 0  9990
2 53489  97.6024 190.3939 0002502 177.0210 183.1030 15.01259695196016
